start=new Date('2022-07-23T00:00:00.000Z').valueOf();
sats=[{"TIME_SYSTEM":"UTC","SITE":"AFETR","PERIAPSIS":"347.649","APOAPSIS":"351.661","FILE":"3519932","GP_ID":"208673543","ECCENTRICITY":"0.00029820","ELEMENT_SET_NO":"999","CLASSIFICATION_TYPE":"U","MEAN_ELEMENT_THEORY":"SGP4","OBJECT_ID":"2022-062AU","RA_OF_ASC_NODE":"229.6931","REV_AT_EPOCH":"130","EPOCH":"2022-07-22T22:00:00.999936","DECAY_DATE":null,"LAUNCH_DATE":"2022-06-17","OBJECT_NAME":"STARLINK-4213","SEMIMAJOR_AXIS":"6727.790","PERIOD":"91.531","INCLINATION":"53.2140","REF_FRAME":"TEME","ARG_OF_PERICENTER":"15.3635","TLE_LINE2":"2 52872  53.2140 229.6931 0002982  15.3635 288.6388 15.73236967  1303","TLE_LINE1":"1 52872U 22062AU  22203.91667824 -.00017137  00000-0 -11769-3 0  9996","OBJECT_TYPE":"PAYLOAD","NORAD_CAT_ID":"52872","EPHEMERIS_TYPE":"0","MEAN_MOTION_DDOT":"0.0000000000000","BSTAR":"-0.00011769000000","COUNTRY_CODE":"US","CENTER_NAME":"EARTH","MEAN_MOTION_DOT":"-0.00017137","MEAN_ANOMALY":"288.6388","RCS_SIZE":"LARGE","MEAN_MOTION":"15.73236967"},{"PERIAPSIS":"347.443","SITE":"AFETR","TIME_SYSTEM":"UTC","CLASSIFICATION_TYPE":"U","ELEMENT_SET_NO":"999","ECCENTRICITY":"0.00033640","GP_ID":"208673428","FILE":"3519932","APOAPSIS":"351.970","RA_OF_ASC_NODE":"229.6901","OBJECT_ID":"2022-062AV","EPOCH":"2022-07-22T22:00:00.999936","REV_AT_EPOCH":"130","MEAN_ELEMENT_THEORY":"SGP4","LAUNCH_DATE":"2022-06-17","OBJECT_NAME":"STARLINK-4211","DECAY_DATE":null,"REF_FRAME":"TEME","ARG_OF_PERICENTER":"5.7694","SEMIMAJOR_AXIS":"6727.842","PERIOD":"91.532","INCLINATION":"53.2142","OBJECT_TYPE":"PAYLOAD","TLE_LINE1":"1 52873U 22062AV  22203.91667824 -.00023231  00000-0 -16135-3 0  9991","TLE_LINE2":"2 52873  53.2142 229.6901 0003364   5.7694 300.6823 15.73218815  1307","COUNTRY_CODE":"US","BSTAR":"-0.00016135000000","CENTER_NAME":"EARTH","MEAN_MOTION_DOT":"-0.00023231","EPHEMERIS_TYPE":"0","NORAD_CAT_ID":"52873","MEAN_MOTION_DDOT":"0.0000000000000","MEAN_MOTION":"15.73218815","RCS_SIZE":"LARGE","MEAN_ANOMALY":"300.6823"},{"TIME_SYSTEM":"UTC","SITE":"AFETR","PERIAPSIS":"347.334","FILE":"3519920","APOAPSIS":"351.694","GP_ID":"208647805","ECCENTRICITY":"0.00032410","CLASSIFICATION_TYPE":"U","ELEMENT_SET_NO":"999","MEAN_ELEMENT_THEORY":"SGP4","EPOCH":"2022-07-22T22:00:00.999936","REV_AT_EPOCH":"607","OBJECT_ID":"2022-062AW","RA_OF_ASC_NODE":"229.6927","DECAY_DATE":null,"LAUNCH_DATE":"2022-06-17","OBJECT_NAME":"STARLINK-4210","INCLINATION":"53.2141","PERIOD":"91.528","SEMIMAJOR_AXIS":"6727.649","ARG_OF_PERICENTER":"6.2334","REF_FRAME":"TEME","TLE_LINE1":"1 52874U 22062AW  22203.91667824 -.00009272  00000-0 -61440-4 0  9991","TLE_LINE2":"2 52874  53.2141 229.6927 0003241   6.2334 298.1967 15.73286358  6072","OBJECT_TYPE":"PAYLOAD","MEAN_MOTION_DDOT":"0.0000000000000","NORAD_CAT_ID":"52874","EPHEMERIS_TYPE":"0","MEAN_MOTION_DOT":"-0.00009272","CENTER_NAME":"EARTH","BSTAR":"-0.00006144000000","COUNTRY_CODE":"US","MEAN_ANOMALY":"298.1967","RCS_SIZE":"LARGE","MEAN_MOTION":"15.73286358"},{"TLE_LINE2":"2 52875  53.2142 229.6886 0003315  13.3125 293.6471 15.73235334  6075","TLE_LINE1":"1 52875U 22062AX  22203.91667824 -.00007798  00000-0 -51071-4 0  9992","OBJECT_TYPE":"PAYLOAD","ARG_OF_PERICENTER":"13.3125","REF_FRAME":"TEME","SEMIMAJOR_AXIS":"6727.794","PERIOD":"91.531","INCLINATION":"53.2142","MEAN_MOTION":"15.73235334","MEAN_ANOMALY":"293.6471","RCS_SIZE":"LARGE","BSTAR":"-0.00005107100000","COUNTRY_CODE":"US","CENTER_NAME":"EARTH","MEAN_MOTION_DOT":"-0.00007798","NORAD_CAT_ID":"52875","EPHEMERIS_TYPE":"0","MEAN_MOTION_DDOT":"0.0000000000000","GP_ID":"208648226","ECCENTRICITY":"0.00033150","CLASSIFICATION_TYPE":"U","ELEMENT_SET_NO":"999","FILE":"3519920","APOAPSIS":"351.890","PERIAPSIS":"347.429","TIME_SYSTEM":"UTC","SITE":"AFETR","OBJECT_NAME":"STARLINK-4193","LAUNCH_DATE":"2022-06-17","DECAY_DATE":null,"OBJECT_ID":"2022-062AX","RA_OF_ASC_NODE":"229.6886","REV_AT_EPOCH":"607","EPOCH":"2022-07-22T22:00:00.999936","MEAN_ELEMENT_THEORY":"SGP4"},{"CLASSIFICATION_TYPE":"U","ELEMENT_SET_NO":"999","GP_ID":"208647807","ECCENTRICITY":"0.00031570","FILE":"3519920","APOAPSIS":"351.686","PERIAPSIS":"347.438","SITE":"AFETR","TIME_SYSTEM":"UTC","OBJECT_NAME":"STARLINK-4200","LAUNCH_DATE":"2022-06-17","DECAY_DATE":null,"RA_OF_ASC_NODE":"229.6909","OBJECT_ID":"2022-062AY","EPOCH":"2022-07-22T22:00:00.999936","REV_AT_EPOCH":"607","MEAN_ELEMENT_THEORY":"SGP4","OBJECT_TYPE":"PAYLOAD","TLE_LINE1":"1 52876U 22062AY  22203.91667824 -.00006699  00000-0 -43182-4 0  9996","TLE_LINE2":"2 52876  53.2142 229.6909 0003157  14.5038 291.1480 15.73269652  6075","ARG_OF_PERICENTER":"14.5038","REF_FRAME":"TEME","SEMIMAJOR_AXIS":"6727.697","INCLINATION":"53.2142","PERIOD":"91.529","MEAN_MOTION":"15.73269652","RCS_SIZE":"LARGE","MEAN_ANOMALY":"291.1480","COUNTRY_CODE":"US","BSTAR":"-0.00004318200000","MEAN_MOTION_DOT":"-0.00006699","CENTER_NAME":"EARTH","EPHEMERIS_TYPE":"0","NORAD_CAT_ID":"52876","MEAN_MOTION_DDOT":"0.0000000000000"},{"APOAPSIS":"351.716","FILE":"3519932","GP_ID":"208673062","ECCENTRICITY":"0.00028860","ELEMENT_SET_NO":"999","CLASSIFICATION_TYPE":"U","TIME_SYSTEM":"UTC","SITE":"AFETR","PERIAPSIS":"347.833","DECAY_DATE":null,"LAUNCH_DATE":"2022-06-17","OBJECT_NAME":"STARLINK-4214","MEAN_ELEMENT_THEORY":"SGP4","REV_AT_EPOCH":"130","EPOCH":"2022-07-22T22:00:00.999936","OBJECT_ID":"2022-062AZ","RA_OF_ASC_NODE":"229.6864","TLE_LINE2":"2 52877  53.2144 229.6864 0002886  11.4656 296.7182 15.73195056  1305","TLE_LINE1":"1 52877U 22062AZ  22203.91667824  .00080387  00000-0  57176-3 0  9998","OBJECT_TYPE":"PAYLOAD","INCLINATION":"53.2144","PERIOD":"91.533","SEMIMAJOR_AXIS":"6727.909","ARG_OF_PERICENTER":"11.4656","REF_FRAME":"TEME","MEAN_ANOMALY":"296.7182","RCS_SIZE":"LARGE","MEAN_MOTION":"15.73195056","MEAN_MOTION_DDOT":"0.0000000000000","NORAD_CAT_ID":"52877","EPHEMERIS_TYPE":"0","MEAN_MOTION_DOT":"0.00080387","CENTER_NAME":"EARTH","BSTAR":"0.00057176000000","COUNTRY_CODE":"US"},{"MEAN_ELEMENT_THEORY":"SGP4","REV_AT_EPOCH":"607","EPOCH":"2022-07-22T22:00:00.999936","OBJECT_ID":"2022-062BA","RA_OF_ASC_NODE":"229.6872","DECAY_DATE":null,"OBJECT_NAME":"STARLINK-4171","LAUNCH_DATE":"2022-06-17","TIME_SYSTEM":"UTC","SITE":"AFETR","PERIAPSIS":"347.515","FILE":"3519908","APOAPSIS":"351.736","ECCENTRICITY":"0.00031370","GP_ID":"208648246","CLASSIFICATION_TYPE":"U","ELEMENT_SET_NO":"999","MEAN_MOTION_DDOT":"0.0000000000000","NORAD_CAT_ID":"52878","EPHEMERIS_TYPE":"0","MEAN_MOTION_DOT":"-0.00009775","CENTER_NAME":"EARTH","BSTAR":"-0.00006513600000","COUNTRY_CODE":"US","MEAN_ANOMALY":"300.1816","RCS_SIZE":"LARGE","MEAN_MOTION":"15.73247396","INCLINATION":"53.2142","PERIOD":"91.530","SEMIMAJOR_AXIS":"6727.760","REF_FRAME":"TEME","ARG_OF_PERICENTER":"7.3858","TLE_LINE2":"2 52878  53.2142 229.6872 0003137   7.3858 300.1816 15.73247396  6079","TLE_LINE1":"1 52878U 22062BA  22203.91667824 -.00009775  00000-0 -65136-4 0  9999","OBJECT_TYPE":"PAYLOAD"},{"RA_OF_ASC_NODE":"229.6831","OBJECT_ID":"2022-062BB","EPOCH":"2022-07-22T22:00:00.999936","REV_AT_EPOCH":"130","MEAN_ELEMENT_THEORY":"SGP4","LAUNCH_DATE":"2022-06-17","OBJECT_NAME":"STARLINK-4139","DECAY_DATE":null,"PERIAPSIS":"347.559","TIME_SYSTEM":"UTC","SITE":"AFETR","GP_ID":"208673313","ECCENTRICITY":"0.00030710","ELEMENT_SET_NO":"999","CLASSIFICATION_TYPE":"U","FILE":"3519932","APOAPSIS":"351.691","BSTAR":"-0.00009709500000","COUNTRY_CODE":"US","CENTER_NAME":"EARTH","MEAN_MOTION_DOT":"-0.00014258","NORAD_CAT_ID":"52879","EPHEMERIS_TYPE":"0","MEAN_MOTION_DDOT":"0.0000000000000","MEAN_MOTION":"15.73247467","MEAN_ANOMALY":"296.2867","RCS_SIZE":"LARGE","ARG_OF_PERICENTER":"13.6675","REF_FRAME":"TEME","SEMIMAJOR_AXIS":"6727.760","INCLINATION":"53.2144","PERIOD":"91.530","TLE_LINE2":"2 52879  53.2144 229.6831 0003071  13.6675 296.2867 15.73247467  1302","TLE_LINE1":"1 52879U 22062BB  22203.91667824 -.00014258  00000-0 -97095-4 0  9991","OBJECT_TYPE":"PAYLOAD"},{"TLE_LINE2":"2 52880  53.2140 229.6831 0003090  13.0364 296.1894 15.73274401  1307","TLE_LINE1":"1 52880U 22062BC  22203.91667824 -.00012431  00000-0 -83964-4 0  9994","OBJECT_TYPE":"PAYLOAD","REF_FRAME":"TEME","ARG_OF_PERICENTER":"13.0364","INCLINATION":"53.2140","PERIOD":"91.529","SEMIMAJOR_AXIS":"6727.683","MEAN_MOTION":"15.73274401","MEAN_ANOMALY":"296.1894","RCS_SIZE":"LARGE","MEAN_MOTION_DOT":"-0.00012431","CENTER_NAME":"EARTH","BSTAR":"-0.00008396400000","COUNTRY_CODE":"US","MEAN_MOTION_DDOT":"0.0000000000000","NORAD_CAT_ID":"52880","EPHEMERIS_TYPE":"0","ECCENTRICITY":"0.00030900","GP_ID":"208673544","ELEMENT_SET_NO":"999","CLASSIFICATION_TYPE":"U","APOAPSIS":"351.627","FILE":"3519932","PERIAPSIS":"347.469","TIME_SYSTEM":"UTC","SITE":"AFETR","OBJECT_NAME":"STARLINK-4186","LAUNCH_DATE":"2022-06-17","DECAY_DATE":null,"REV_AT_EPOCH":"130","EPOCH":"2022-07-22T22:00:00.999936","RA_OF_ASC_NODE":"229.6831","OBJECT_ID":"2022-062BC","MEAN_ELEMENT_THEORY":"SGP4"},{"MEAN_MOTION":"15.73195559","RCS_SIZE":"LARGE","MEAN_ANOMALY":"300.1241","MEAN_MOTION_DOT":"0.00084325","CENTER_NAME":"EARTH","COUNTRY_CODE":"US","BSTAR":"0.00059923000000","MEAN_MOTION_DDOT":"0.0000000000000","EPHEMERIS_TYPE":"0","NORAD_CAT_ID":"52881","OBJECT_TYPE":"PAYLOAD","TLE_LINE1":"1 52881U 22062BD  22203.91667824  .00084325  00000-0  59923-3 0  9991","TLE_LINE2":"2 52881  53.2146 229.6868 0003196   8.6364 300.1241 15.73195559  1309","ARG_OF_PERICENTER":"8.6364","REF_FRAME":"TEME","INCLINATION":"53.2146","PERIOD":"91.533","SEMIMAJOR_AXIS":"6727.908","OBJECT_NAME":"STARLINK-4192","LAUNCH_DATE":"2022-06-17","DECAY_DATE":null,"EPOCH":"2022-07-22T22:00:00.999936","REV_AT_EPOCH":"130","OBJECT_ID":"2022-062BD","RA_OF_ASC_NODE":"229.6868","MEAN_ELEMENT_THEORY":"SGP4","ELEMENT_SET_NO":"999","CLASSIFICATION_TYPE":"U","GP_ID":"208673429","ECCENTRICITY":"0.00031960","FILE":"3519932","APOAPSIS":"351.923","PERIAPSIS":"347.623","SITE":"AFETR","TIME_SYSTEM":"UTC"}];
